ONEWEB-0694             
1 56722U 23068N   24100.54174722  .00000038  00000+0  66760-4 0  9999
2 56722  87.9136  27.6992 0002384  84.7333 275.4070 13.16596969 46682
ONEWEB-0696             
1 56723U 23068P   24100.95101023  .00000160  00000+0  39183-3 0  9993
2 56723  87.9017  58.0732 0001680  75.7183 284.4133 13.15550098 44413
ONEWEB-0703             
1 56724U 23068Q   24100.58022937  .00000124  00000+0  29541-3 0  9996
2 56724  87.9016  58.1680 0001125  39.2976 320.8236 13.15549753 44252
ONEWEB-0721             
1 56725U 23068R   24100.44797045  .00003063  00000+0  35915-3 0  9998
2 56725  86.6826   4.8148 0011846 143.7808 216.4220 14.84614056 48311
